{
  "norad_id": 55600,
  "name": "STARLINK-5755",
  "history": [
    {
      "epoch": "2026-03-28T22:00:01.999584",
      "apogee_km": 491.9594322175926,
      "perigee_km": 489.3185252292924,
      "latitude_deg": 42.73549227954226,
      "longitude_deg": -171.99777824012563,
      "semi_major_axis_km": 6868.775978723442,
      "eccentricity": 0.00019224,
      "inclination_deg": 42.9992,
      "raan_deg": 245.496,
      "arg_perigee_deg": 271.973,
      "mean_anomaly_deg": 13.8111,
      "mean_motion_rev_day": 15.25048774
    },
    {
      "epoch": "2026-03-29T04:00:01.999584",
      "apogee_km": 490.7412827553944,
      "perigee_km": 488.7372364628409,
      "latitude_deg": -31.5322149387919,
      "longitude_deg": -147.99777824012563,
      "semi_major_axis_km": 6867.876259609117,
      "eccentricity": 0.0001459,
      "inclination_deg": 42.9991,
      "raan_deg": 244.0848,
      "arg_perigee_deg": 262.1915,
      "mean_anomaly_deg": 317.9078,
      "mean_motion_rev_day": 15.25348465
    }
  ]
}